{"type": "FeatureCollection", "features": [ {"type": "Feature", "properties": {"norad_id": 66990, "name": "TJS-22", "group": "last-30-days", "lat": -1.5625567939324392, "lon": -127.45361826567417, "alt_km": 35774.66264947443, "timestamp": "2025-12-27T04:40:44.221056+00:00", "meta": {"OBJECT_NAME": "TJS-22", "OBJECT_ID": "2025-290A", "EPOCH": "2025-12-26T08:16:11.750016", "MEAN_MOTION": 1.00271731, "ECCENTRICITY": 0.00033821, "INCLINATION": 1.9542, "RA_OF_ASC_NODE": 285.0406, "ARG_OF_PERICENTER": 343.2967, "MEAN_ANOMALY": 17.2528, "EPHEMERIS_TYPE": 0, "CLASSIFICATION_TYPE": "U", "NORAD_CAT_ID": 66990, "ELEMENT_SET_NO": 999, "REV_AT_EPOCH": 29, "BSTAR": 0, "MEAN_MOTION_DOT": 1.6e-07, "MEAN_MOTION_DDOT": 0}, "tle": {"line1": "1 66990U 25290A   25360.34458044  .00000016  00000+0  00000+0 0  9991", "line2": "2 66990   1.9542 285.0406 0003382 343.2967  17.2528  1.00271731   296"}}, "geometry": {"type": "Point", "coordinates": [-127.45361826567417, -1.5625567939324392]}}, {"type": "Feature", "properties": {"norad_id": 66991, "name": "CZ-3B R/B", "group": "last-30-days", "lat": 24.430458995174185, "lon": -7.090494627598452, "alt_km": 14538.53727148243, "timestamp": "2025-12-27T04:40:44.221068+00:00", "meta": {"OBJECT_NAME": "CZ-3B R/B", "OBJECT_ID": "2025-290B", "EPOCH": "2025-12-15T17:23:33.043200", "MEAN_MOTION": 2.38388611, "ECCENTRICITY": 0.7240884, "INCLINATION": 28.4636, "RA_OF_ASC_NODE": 300.4666, "ARG_OF_PERICENTER": 182.7002, "MEAN_ANOMALY": 168.625, "EPHEMERIS_TYPE": 0, "CLASSIFICATION_TYPE": "U", "NORAD_CAT_ID": 66991, "ELEMENT_SET_NO": 999, "REV_AT_EPOCH": 16, "BSTAR": 0.00075879, "MEAN_MOTION_DOT": 0.00057911, "MEAN_MOTION_DDOT": -2.0514e-07}, "tle": {"line1": "1 66991U 25290B   25349.72468800  .00057911 -20514-6  75879-3 0  9998", "line2": "2 66991  28.4636 300.4666 7240884 182.7002 168.6250  2.38388611   165"}}, "geometry": {"type": "Point", "coordinates": [-7.090494627598452, 24.430458995174185]}}, {"type": "Feature", "properties": {"norad_id": 66993, "name": "2025-292A", "group": "last-30-days", "lat": 57.234894889740026, "lon": -94.34284152630558, "alt_km": 548.7945919706108, "timestamp": "2025-12-27T04:40:44.221079+00:00", "meta": {"OBJECT_NAME": "2025-292A", "OBJECT_ID": "2025-292A", "EPOCH": "2025-12-26T21:45:12.235968", "MEAN_MOTION": 15.04603604, "ECCENTRICITY": 0.00147598, "INCLINATION": 97.6491, "RA_OF_ASC_NODE": 73.3185, "ARG_OF_PERICENTER": 221.6863, "MEAN_ANOMALY": 138.3239, "EPHEMERIS_TYPE": 0, "CLASSIFICATION_TYPE": "U", "NORAD_CAT_ID": 66993, "ELEMENT_SET_NO": 999, "REV_AT_EPOCH": 252, "BSTAR": 0.00037248811, "MEAN_MOTION_DOT": 5.181e-05, "MEAN_MOTION_DDOT": 0}, "tle": {"line1": "1 66993U 25292A   25360.90639162  .00005181  00000+0  37249-3 0  9997", "line2": "2 66993  97.6491  73.3185 0014759 221.6863 138.3239 15.04603604  2529"}}, "geometry": {"type": "Point", "coordinates": [-94.34284152630558, 57.234894889740026]}}, {"type": "Feature", "properties": {"norad_id": 66994, "name": "2025-292B", "group": "last-30-days", "lat": 54.53322600048106, "lon": -95.5179018583289, "alt_km": 548.528095526447, "timestamp": "2025-12-27T04:40:44.221100+00:00", "meta": {"OBJECT_NAME": "2025-292B", "OBJECT_ID": "2025-292B", "EPOCH": "2025-12-26T21:44:28.806144", "MEAN_MOTION": 15.04654531, "ECCENTRICITY": 0.0014552, "INCLINATION": 97.6501, "RA_OF_ASC_NODE": 73.3208, "ARG_OF_PERICENTER": 222.0345, "MEAN_ANOMALY": 137.9766, "EPHEMERIS_TYPE": 0, "CLASSIFICATION_TYPE": "U", "NORAD_CAT_ID": 66994, "ELEMENT_SET_NO": 999, "REV_AT_EPOCH": 252, "BSTAR": 0.000415079, "MEAN_MOTION_DOT": 5.788e-05, "MEAN_MOTION_DDOT": 0}, "tle": {"line1": "1 66994U 25292B   25360.90588896  .00005788  00000+0  41508-3 0  9991", "line2": "2 66994  97.6501  73.3208 0014552 222.0345 137.9766 15.04654531  2524"}}, "geometry": {"type": "Point", "coordinates": [-95.5179018583289, 54.53322600048106]}}, {"type": "Feature", "properties": {"norad_id": 66995, "name": "2025-292C", "group": "last-30-days", "lat": 53.33815355976083, "lon": -95.99177114053442, "alt_km": 548.4277316981315, "timestamp": "2025-12-27T04:40:44.221114+00:00", "meta": {"OBJECT_NAME": "2025-292C", "OBJECT_ID": "2025-292C", "EPOCH": "2025-12-25T05:50:07.257120", "MEAN_MOTION": 15.04668363, "ECCENTRICITY": 0.0014688, "INCLINATION": 97.6495, "RA_OF_ASC_NODE": 71.6733, "ARG_OF_PERICENTER": 227.9665, "MEAN_ANOMALY": 132.0312, "EPHEMERIS_TYPE": 0, "CLASSIFICATION_TYPE": "U", "NORAD_CAT_ID": 66995, "ELEMENT_SET_NO": 999, "REV_AT_EPOCH": 227, "BSTAR": 0.00041226, "MEAN_MOTION_DOT": 5.751e-05, "MEAN_MOTION_DDOT": 0}, "tle": {"line1": "1 66995U 25292C   25359.24313955  .00005751  00000+0  41226-3 0  9996", "line2": "2 66995  97.6495  71.6733 0014688 227.9665 132.0312 15.04668363  2273"}}, "geometry": {"type": "Point", "coordinates": [-95.99177114053442, 53.33815355976083]}}, {"type": "Feature", "properties": {"norad_id": 66996, "name": "2025-292D", "group": "last-30-days", "lat": 51.368735654187965, "lon": -96.71339155225837, "alt_km": 548.7134643597437, "timestamp": "2025-12-27T04:40:44.221125+00:00", "meta": {"OBJECT_NAME": "2025-292D", "OBJECT_ID": "2025-292D", "EPOCH": "2025-12-25T05:49:36.025248", "MEAN_MOTION": 15.04678565, "ECCENTRICITY": 0.0013797, "INCLINATION": 97.6491, "RA_OF_ASC_NODE": 71.6729, "ARG_OF_PERICENTER": 230.5158, "MEAN_ANOMALY": 129.4848, "EPHEMERIS_TYPE": 0, "CLASSIFICATION_TYPE": "U", "NORAD_CAT_ID": 66996, "ELEMENT_SET_NO": 999, "REV_AT_EPOCH": 227, "BSTAR": 0.00027339, "MEAN_MOTION_DOT": 3.792e-05, "MEAN_MOTION_DDOT": 0}, "tle": {"line1": "1 66996U 25292D   25359.24277807  .00003792  00000+0  27339-3 0  9994", "line2": "2 66996  97.6491  71.6729 0013797 230.5158 129.4848 15.04678565  2271"}}, "geometry": {"type": "Point", "coordinates": [-96.71339155225837, 51.368735654187965]}}, {"type": "Feature", "properties": {"norad_id": 66997, "name": "2025-292E", "group": "last-30-days", "lat": 46.29462966434632, "lon": -98.30313251796343, "alt_km": 548.4434554766331, "timestamp": "2025-12-27T04:40:44.221135+00:00", "meta": {"OBJECT_NAME": "2025-292E", "OBJECT_ID": "2025-292E", "EPOCH": "2025-12-26T21:42:16.672032", "MEAN_MOTION": 15.04787706, "ECCENTRICITY": 0.00143499, "INCLINATION": 97.6508, "RA_OF_ASC_NODE": 73.3242, "ARG_OF_PERICENTER": 225.8769, "MEAN_ANOMALY": 134.1278, "EPHEMERIS_TYPE": 0, "CLASSIFICATION_TYPE": "U", "NORAD_CAT_ID": 66997, "ELEMENT_SET_NO": 999, "REV_AT_EPOCH": 251, "BSTAR": 0.00039825711, "MEAN_MOTION_DOT": 5.57e-05, "MEAN_MOTION_DDOT": 0}, "tle": {"line1": "1 66997U 25292E   25360.90435963  .00005570  00000+0  39826-3 0  9999", "line2": "2 66997  97.6508  73.3242 0014349 225.8769 134.1278 15.04787706  2514"}}, "geometry": {"type": "Point", "coordinates": [-98.30313251796343, 46.29462966434632]}}, {"type": "Feature", "properties": {"norad_id": 66998, "name": "2025-292F", "group": "last-30-days", "lat": 36.29503008808465, "lon": -100.71250320777689, "alt_km": 547.6780103282363, "timestamp": "2025-12-27T04:40:44.221145+00:00", "meta": {"OBJECT_NAME": "2025-292F", "OBJECT_ID": "2025-292F", "EPOCH": "2025-12-26T21:39:37.537056", "MEAN_MOTION": 15.04975707, "ECCENTRICITY": 0.0015477, "INCLINATION": 97.6528, "RA_OF_ASC_NODE": 73.3304, "ARG_OF_PERICENTER": 226.7484, "MEAN_ANOMALY": 133.2452, "EPHEMERIS_TYPE": 0, "CLASSIFICATION_TYPE": "U", "NORAD_CAT_ID": 66998, "ELEMENT_SET_NO": 999, "REV_AT_EPOCH": 252, "BSTAR": 0.00052050341, "MEAN_MOTION_DOT": 7.341e-05, "MEAN_MOTION_DDOT": 0}, "tle": {"line1": "1 66998U 25292F   25360.90251779  .00007341  00000+0  52050-3 0  9993", "line2": "2 66998  97.6528  73.3304 0015477 226.7484 133.2452 15.04975707  2528"}}, "geometry": {"type": "Point", "coordinates": [-100.71250320777689, 36.29503008808465]}}, {"type": "Feature", "properties": {"norad_id": 66999, "name": "2025-292G", "group": "last-30-days", "lat": 32.440365596934065, "lon": -101.47293394431375, "alt_km": 547.7932188335744, "timestamp": "2025-12-27T04:40:44.221157+00:00", "meta": {"OBJECT_NAME": "2025-292G", "OBJECT_ID": "2025-292G", "EPOCH": "2025-12-26T21:38:36.486816", "MEAN_MOTION": 15.05040351, "ECCENTRICITY": 0.00149775, "INCLINATION": 97.6538, "RA_OF_ASC_NODE": 73.3332, "ARG_OF_PERICENTER": 228.7164, "MEAN_ANOMALY": 131.2774, "EPHEMERIS_TYPE": 0, "CLASSIFICATION_TYPE": "U", "NORAD_CAT_ID": 66999, "ELEMENT_SET_NO": 999, "REV_AT_EPOCH": 252, "BSTAR": 0.00051892243, "MEAN_MOTION_DOT": 7.33e-05, "MEAN_MOTION_DDOT": 0}, "tle": {"line1": "1 66999U 25292G   25360.90181119  .00007330  00000+0  51892-3 0  9995", "line2": "2 66999  97.6538  73.3332 0014977 228.7164 131.2774 15.05040351  2526"}}, "geometry": {"type": "Point", "coordinates": [-101.47293394431375, 32.440365596934065]}}, {"type": "Feature", "properties": {"norad_id": 67000, "name": "2025-292H", "group": "last-30-days", "lat": 31.57121369263821, "lon": -101.63222113417221, "alt_km": 547.6356525730016, "timestamp": "2025-12-27T04:40:44.221167+00:00", "meta": {"OBJECT_NAME": "2025-292H", "OBJECT_ID": "2025-292H", "EPOCH": "2025-12-26T21:38:23.105184", "MEAN_MOTION": 15.05076214, "ECCENTRICITY": 0.00149274, "INCLINATION": 97.6551, "RA_OF_ASC_NODE": 73.336, "ARG_OF_PERICENTER": 228.5267, "MEAN_ANOMALY": 131.4679, "EPHEMERIS_TYPE": 0, "CLASSIFICATION_TYPE": "U", "NORAD_CAT_ID": 67000, "ELEMENT_SET_NO": 999, "REV_AT_EPOCH": 239, "BSTAR": 0.00062859818, "MEAN_MOTION_DOT": 8.903e-05, "MEAN_MOTION_DDOT": 0}, "tle": {"line1": "1 67000U 25292H   25360.90165631  .00008903  00000+0  62860-3 0  9994", "line2": "2 67000  97.6551  73.3360 0014927 228.5267 131.4679 15.05076214  2391"}}, "geometry": {"type": "Point", "coordinates": [-101.63222113417221, 31.57121369263821]}}]}